start=new Date('2022-10-21T00:00:00.000Z').valueOf();
sats=[{"SITE":"AFETR","FILE":"3625892","OBJECT_TYPE":"PAYLOAD","TLE_LINE1":"1 45679U 20035Y   22293.53398350  .00000075  00000-0  23955-4 0  9995","CENTER_NAME":"EARTH","GP_ID":"215687638","APOAPSIS":"548.122","PERIAPSIS":"546.335","ELEMENT_SET_NO":"999","MEAN_MOTION":"15.06395116","MEAN_MOTION_DDOT":"0.0000000000000","INCLINATION":"53.0542","MEAN_MOTION_DOT":"0.00000075","COUNTRY_CODE":"US","LAUNCH_DATE":"2020-06-04","TIME_SYSTEM":"UTC","BSTAR":"0.00002395500000","EPHEMERIS_TYPE":"0","DECAY_DATE":null,"OBJECT_NAME":"STARLINK-1394","PERIOD":"95.592","MEAN_ELEMENT_THEORY":"SGP4","OBJECT_ID":"2020-035Y","REV_AT_EPOCH":"13255","ECCENTRICITY":"0.00012900","MEAN_ANOMALY":"266.7695","TLE_LINE2":"2 45679  53.0542 205.9406 0001290  93.3441 266.7695 15.06395116132558","NORAD_CAT_ID":"45679","RCS_SIZE":"LARGE","REF_FRAME":"TEME","RA_OF_ASC_NODE":"205.9406","CLASSIFICATION_TYPE":"U","SEMIMAJOR_AXIS":"6925.364","ARG_OF_PERICENTER":"93.3441","EPOCH":"2022-10-20T12:48:56.174400"},{"MEAN_MOTION":"15.06401468","ELEMENT_SET_NO":"999","MEAN_MOTION_DOT":"0.00001237","MEAN_MOTION_DDOT":"0.0000000000000","INCLINATION":"53.0540","CENTER_NAME":"EARTH","GP_ID":"215686401","FILE":"3625892","SITE":"AFETR","OBJECT_TYPE":"PAYLOAD","TLE_LINE1":"1 45680U 20035Z   22293.47500163  .00001237  00000-0  10191-3 0  9995","APOAPSIS":"548.176","PERIAPSIS":"546.242","TLE_LINE2":"2 45680  53.0540 206.2151 0001396  88.8681 271.2468 15.06401468132536","NORAD_CAT_ID":"45680","MEAN_ANOMALY":"271.2468","OBJECT_ID":"2020-035Z","ECCENTRICITY":"0.00013960","REV_AT_EPOCH":"13253","SEMIMAJOR_AXIS":"6925.344","ARG_OF_PERICENTER":"88.8681","EPOCH":"2022-10-20T11:24:00.140832","RCS_SIZE":"LARGE","REF_FRAME":"TEME","CLASSIFICATION_TYPE":"U","RA_OF_ASC_NODE":"206.2151","COUNTRY_CODE":"US","EPHEMERIS_TYPE":"0","BSTAR":"0.00010191000000","MEAN_ELEMENT_THEORY":"SGP4","PERIOD":"95.592","OBJECT_NAME":"STARLINK-1395","DECAY_DATE":null,"TIME_SYSTEM":"UTC","LAUNCH_DATE":"2020-06-04"},{"MEAN_MOTION":"15.06398546","ELEMENT_SET_NO":"999","MEAN_MOTION_DOT":"0.00001964","MEAN_MOTION_DDOT":"0.0000000000000","INCLINATION":"53.0551","CENTER_NAME":"EARTH","GP_ID":"215686651","SITE":"AFETR","FILE":"3625892","TLE_LINE1":"1 45681U 20035AA  22293.47131958  .00001964  00000-0  15072-3 0  9998","OBJECT_TYPE":"PAYLOAD","PERIAPSIS":"546.190","APOAPSIS":"548.246","MEAN_ANOMALY":"269.5823","TLE_LINE2":"2 45681  53.0551 206.2258 0001484  90.5336 269.5823 15.06398546132540","NORAD_CAT_ID":"45681","OBJECT_ID":"2020-035AA","REV_AT_EPOCH":"13254","ECCENTRICITY":"0.00014840","SEMIMAJOR_AXIS":"6925.353","ARG_OF_PERICENTER":"90.5336","EPOCH":"2022-10-20T11:18:42.011712","RCS_SIZE":"LARGE","REF_FRAME":"TEME","RA_OF_ASC_NODE":"206.2258","CLASSIFICATION_TYPE":"U","COUNTRY_CODE":"US","EPHEMERIS_TYPE":"0","BSTAR":"0.00015072000000","DECAY_DATE":null,"OBJECT_NAME":"STARLINK-1396","MEAN_ELEMENT_THEORY":"SGP4","PERIOD":"95.592","LAUNCH_DATE":"2020-06-04","TIME_SYSTEM":"UTC"},{"LAUNCH_DATE":"2020-06-04","TIME_SYSTEM":"UTC","EPHEMERIS_TYPE":"0","BSTAR":"0.00003031000000","OBJECT_NAME":"STARLINK-1397","DECAY_DATE":null,"MEAN_ELEMENT_THEORY":"SGP4","PERIOD":"95.592","COUNTRY_CODE":"US","RCS_SIZE":"LARGE","REF_FRAME":"TEME","CLASSIFICATION_TYPE":"U","RA_OF_ASC_NODE":"206.1887","SEMIMAJOR_AXIS":"6925.351","EPOCH":"2022-10-20T11:29:19.120992","ARG_OF_PERICENTER":"101.8408","OBJECT_ID":"2020-035AB","REV_AT_EPOCH":"13253","ECCENTRICITY":"0.00014250","MEAN_ANOMALY":"258.2740","TLE_LINE2":"2 45682  53.0566 206.1887 0001425 101.8408 258.2740 15.06399096132538","NORAD_CAT_ID":"45682","PERIAPSIS":"546.229","APOAPSIS":"548.203","SITE":"AFETR","FILE":"3625892","OBJECT_TYPE":"PAYLOAD","TLE_LINE1":"1 45682U 20035AB  22293.47869353  .00000170  00000-0  30310-4 0  9997","CENTER_NAME":"EARTH","GP_ID":"215687901","MEAN_MOTION_DDOT":"0.0000000000000","INCLINATION":"53.0566","MEAN_MOTION_DOT":"0.00000170","ELEMENT_SET_NO":"999","MEAN_MOTION":"15.06399096"},{"CLASSIFICATION_TYPE":"U","RA_OF_ASC_NODE":"205.0663","REF_FRAME":"TEME","RCS_SIZE":"LARGE","EPOCH":"2022-10-20T17:24:56.062368","ARG_OF_PERICENTER":"99.7237","SEMIMAJOR_AXIS":"6925.355","REV_AT_EPOCH":"13258","ECCENTRICITY":"0.00015200","OBJECT_ID":"2020-035AC","MEAN_ANOMALY":"260.3924","TLE_LINE2":"2 45683  53.0549 205.0663 0001520  99.7237 260.3924 15.06397824132581","NORAD_CAT_ID":"45683","LAUNCH_DATE":"2020-06-04","TIME_SYSTEM":"UTC","DECAY_DATE":null,"OBJECT_NAME":"STARLINK-1399","PERIOD":"95.592","MEAN_ELEMENT_THEORY":"SGP4","EPHEMERIS_TYPE":"0","BSTAR":"0.00009900100000","COUNTRY_CODE":"US","MEAN_MOTION_DDOT":"0.0000000000000","INCLINATION":"53.0549","MEAN_MOTION_DOT":"0.00001193","ELEMENT_SET_NO":"999","MEAN_MOTION":"15.06397824","APOAPSIS":"548.273","PERIAPSIS":"546.168","OBJECT_TYPE":"PAYLOAD","TLE_LINE1":"1 45683U 20035AC  22293.72564887  .00001193  00000-0  99001-4 0  9998","SITE":"AFETR","FILE":"3626396","GP_ID":"215722379","CENTER_NAME":"EARTH"},{"GP_ID":"215722629","CENTER_NAME":"EARTH","TLE_LINE1":"1 45684U 20035AD  22293.76988250  .00001049  00000-0  89370-4 0  9995","OBJECT_TYPE":"PAYLOAD","SITE":"AFETR","FILE":"3626396","APOAPSIS":"548.319","PERIAPSIS":"546.201","MEAN_MOTION":"15.06384748","ELEMENT_SET_NO":"999","MEAN_MOTION_DOT":"0.00001049","INCLINATION":"53.0561","MEAN_MOTION_DDOT":"0.0000000000000","COUNTRY_CODE":"US","DECAY_DATE":null,"OBJECT_NAME":"STARLINK-1401","MEAN_ELEMENT_THEORY":"SGP4","PERIOD":"95.593","BSTAR":"0.00008937000000","EPHEMERIS_TYPE":"0","LAUNCH_DATE":"2020-06-04","TIME_SYSTEM":"UTC","MEAN_ANOMALY":"289.4059","NORAD_CAT_ID":"45684","TLE_LINE2":"2 45684  53.0561 204.8839 0001529  70.7095 289.4059 15.06384748132591","REV_AT_EPOCH":"13259","ECCENTRICITY":"0.00015290","OBJECT_ID":"2020-035AD","EPOCH":"2022-10-20T18:28:37.848000","ARG_OF_PERICENTER":"70.7095","SEMIMAJOR_AXIS":"6925.395","RA_OF_ASC_NODE":"204.8839","CLASSIFICATION_TYPE":"U","REF_FRAME":"TEME","RCS_SIZE":"LARGE"},{"COUNTRY_CODE":"US","DECAY_DATE":null,"OBJECT_NAME":"STARLINK-1402","MEAN_ELEMENT_THEORY":"SGP4","PERIOD":"95.592","EPHEMERIS_TYPE":"0","BSTAR":"0.00046889000000","LAUNCH_DATE":"2020-06-04","TIME_SYSTEM":"UTC","MEAN_ANOMALY":"273.4750","TLE_LINE2":"2 45685  53.0533 204.6054 0001492  86.6410 273.4750 15.06408362132606","NORAD_CAT_ID":"45685","REV_AT_EPOCH":"13260","ECCENTRICITY":"0.00014920","OBJECT_ID":"2020-035AE","ARG_OF_PERICENTER":"86.6410","EPOCH":"2022-10-20T19:58:51.655584","SEMIMAJOR_AXIS":"6925.323","CLASSIFICATION_TYPE":"U","RA_OF_ASC_NODE":"204.6054","REF_FRAME":"TEME","RCS_SIZE":"LARGE","CENTER_NAME":"EARTH","GP_ID":"215723362","OBJECT_TYPE":"PAYLOAD","TLE_LINE1":"1 45685U 20035AE  22293.83254231  .00006711  00000-0  46889-3 0  9997","SITE":"AFETR","FILE":"3626396","APOAPSIS":"548.221","PERIAPSIS":"546.155","MEAN_MOTION":"15.06408362","ELEMENT_SET_NO":"999","MEAN_MOTION_DOT":"0.00006711","MEAN_MOTION_DDOT":"0.0000000000000","INCLINATION":"53.0533"},{"EPOCH":"2022-10-20T18:12:42.169824","ARG_OF_PERICENTER":"124.1036","SEMIMAJOR_AXIS":"6925.361","RA_OF_ASC_NODE":"204.9216","CLASSIFICATION_TYPE":"U","REF_FRAME":"TEME","RCS_SIZE":"LARGE","MEAN_ANOMALY":"236.0109","NORAD_CAT_ID":"45686","TLE_LINE2":"2 45686  53.0557 204.9216 0001644 124.1036 236.0109 15.06395902132593","REV_AT_EPOCH":"13259","ECCENTRICITY":"0.00016440","OBJECT_ID":"2020-035AF","OBJECT_NAME":"STARLINK-1404","DECAY_DATE":null,"PERIOD":"95.592","MEAN_ELEMENT_THEORY":"SGP4","BSTAR":"0.00010721000000","EPHEMERIS_TYPE":"0","LAUNCH_DATE":"2020-06-04","TIME_SYSTEM":"UTC","COUNTRY_CODE":"US","MEAN_MOTION_DOT":"0.00001316","MEAN_MOTION_DDOT":"0.0000000000000","INCLINATION":"53.0557","MEAN_MOTION":"15.06395902","ELEMENT_SET_NO":"999","PERIAPSIS":"546.088","APOAPSIS":"548.365","CENTER_NAME":"EARTH","GP_ID":"215722130","OBJECT_TYPE":"PAYLOAD","TLE_LINE1":"1 45686U 20035AF  22293.75882141  .00001316  00000-0  10721-3 0  9998","SITE":"AFETR","FILE":"3626396"},{"FILE":"3626396","SITE":"AFETR","TLE_LINE1":"1 45688U 20035AH  22293.76014374  .00023991  00000-0  15099-2 0  9991","OBJECT_TYPE":"PAYLOAD","CENTER_NAME":"EARTH","GP_ID":"215721881","PERIAPSIS":"537.752","APOAPSIS":"540.218","ELEMENT_SET_NO":"999","MEAN_MOTION":"15.09088799","MEAN_MOTION_DDOT":"0.0000000000000","INCLINATION":"53.0552","MEAN_MOTION_DOT":"0.00023991","COUNTRY_CODE":"US","TIME_SYSTEM":"UTC","LAUNCH_DATE":"2020-06-04","EPHEMERIS_TYPE":"0","BSTAR":"0.00150990000000","MEAN_ELEMENT_THEORY":"SGP4","PERIOD":"95.422","OBJECT_NAME":"STARLINK-1408","DECAY_DATE":null,"OBJECT_ID":"2020-035AH","ECCENTRICITY":"0.00017820","REV_AT_EPOCH":"13259","NORAD_CAT_ID":"45688","TLE_LINE2":"2 45688  53.0552 204.3276 0001782 107.7651 252.3534 15.09088799132592","MEAN_ANOMALY":"252.3534","RCS_SIZE":"LARGE","REF_FRAME":"TEME","RA_OF_ASC_NODE":"204.3276","CLASSIFICATION_TYPE":"U","SEMIMAJOR_AXIS":"6917.120","EPOCH":"2022-10-20T18:14:36.419136","ARG_OF_PERICENTER":"107.7651"},{"RCS_SIZE":"LARGE","REF_FRAME":"TEME","CLASSIFICATION_TYPE":"U","RA_OF_ASC_NODE":"204.8496","SEMIMAJOR_AXIS":"6925.363","EPOCH":"2022-10-20T18:39:14.676480","ARG_OF_PERICENTER":"110.7000","OBJECT_ID":"2020-035AJ","ECCENTRICITY":"0.00014890","REV_AT_EPOCH":"13250","NORAD_CAT_ID":"45689","TLE_LINE2":"2 45689  53.0549 204.8496 0001489 110.7000 249.4149 15.06395349132503","MEAN_ANOMALY":"249.4149","TIME_SYSTEM":"UTC","LAUNCH_DATE":"2020-06-04","EPHEMERIS_TYPE":"0","BSTAR":"0.00008865400000","PERIOD":"95.592","MEAN_ELEMENT_THEORY":"SGP4","DECAY_DATE":null,"OBJECT_NAME":"STARLINK-1413","COUNTRY_CODE":"US","MEAN_MOTION_DDOT":"0.0000000000000","INCLINATION":"53.0549","MEAN_MOTION_DOT":"0.00001039","ELEMENT_SET_NO":"999","MEAN_MOTION":"15.06395349","APOAPSIS":"548.259","PERIAPSIS":"546.197","FILE":"3626396","SITE":"AFETR","TLE_LINE1":"1 45689U 20035AJ  22293.77725320  .00001039  00000-0  88654-4 0  9991","OBJECT_TYPE":"PAYLOAD","CENTER_NAME":"EARTH","GP_ID":"215723129"}];
